{"type": "FeatureCollection", "features": [ {"type": "Feature", "properties": {"norad_id": 31660, "name": "FENGYUN 1C DEB", "group": "fengyun-1c-debris", "lat": 2.8450350202809944, "lon": 158.32713369303102, "alt_km": 744.2840794129288, "timestamp": "2025-12-02T06:27:53.296922+00:00", "meta": {"OBJECT_NAME": "FENGYUN 1C DEB", "OBJECT_ID": "1999-025CBS", "EPOCH": "2025-11-21T18:54:02.073600", "MEAN_MOTION": 14.27033891, "ECCENTRICITY": 0.01009939, "INCLINATION": 98.5056, "RA_OF_ASC_NODE": 327.7074, "ARG_OF_PERICENTER": 242.467, "MEAN_ANOMALY": 116.6221, "EPHEMERIS_TYPE": 0, "CLASSIFICATION_TYPE": "U", "NORAD_CAT_ID": 31660, "ELEMENT_SET_NO": 999, "REV_AT_EPOCH": 7617, "BSTAR": 0.00068848685, "MEAN_MOTION_DOT": 1.726e-05, "MEAN_MOTION_DDOT": 0}, "tle": {"line1": "1 31660U 99025CBS 25325.78752400  .00001726  00000+0  68849-3 0  9994", "line2": "2 31660  98.5056 327.7074 0100993 242.4670 116.6221 14.27033891 76176"}}, "geometry": {"type": "Point", "coordinates": [158.32713369303102, 2.8450350202809944]}}, {"type": "Feature", "properties": {"norad_id": 31661, "name": "FENGYUN 1C DEB", "group": "fengyun-1c-debris", "lat": -53.66754292034608, "lon": 67.49147496492589, "alt_km": 788.7975976863027, "timestamp": "2025-12-02T06:27:53.296932+00:00", "meta": {"OBJECT_NAME": "FENGYUN 1C DEB", "OBJECT_ID": "1999-025CBT", "EPOCH": "2025-11-30T04:18:51.433344", "MEAN_MOTION": 14.25271811, "ECCENTRICITY": 0.00575239, "INCLINATION": 98.8613, "RA_OF_ASC_NODE": 53.1347, "ARG_OF_PERICENTER": 259.6353, "MEAN_ANOMALY": 129.5539, "EPHEMERIS_TYPE": 0, "CLASSIFICATION_TYPE": "U", "NORAD_CAT_ID": 31661, "ELEMENT_SET_NO": 999, "REV_AT_EPOCH": 95534, "BSTAR": 0.001959155, "MEAN_MOTION_DOT": 4.647e-05, "MEAN_MOTION_DDOT": 0}, "tle": {"line1": "1 31661U 99025CBT 25334.17976196  .00004647  00000+0  19592-2 0  9993", "line2": "2 31661  98.8613  53.1347 0057523 259.6353 129.5539 14.25271811955344"}}, "geometry": {"type": "Point", "coordinates": [67.49147496492589, -53.66754292034608]}}, {"type": "Feature", "properties": {"norad_id": 31663, "name": "FENGYUN 1C DEB", "group": "fengyun-1c-debris", "lat": 22.420321971443006, "lon": -120.52992039727489, "alt_km": 688.8793526344261, "timestamp": "2025-12-02T06:27:53.296942+00:00", "meta": {"OBJECT_NAME": "FENGYUN 1C DEB", "OBJECT_ID": "1999-025CBV", "EPOCH": "2025-11-30T23:27:18.523872", "MEAN_MOTION": 14.76286387, "ECCENTRICITY": 0.01898739, "INCLINATION": 98.8373, "RA_OF_ASC_NODE": 241.7371, "ARG_OF_PERICENTER": 274.6782, "MEAN_ANOMALY": 83.2764, "EPHEMERIS_TYPE": 0, "CLASSIFICATION_TYPE": "U", "NORAD_CAT_ID": 31663, "ELEMENT_SET_NO": 999, "REV_AT_EPOCH": 99106, "BSTAR": 0.00042233819, "MEAN_MOTION_DOT": 3.861e-05, "MEAN_MOTION_DDOT": 0}, "tle": {"line1": "1 31663U 99025CBV 25334.97729773  .00003861  00000+0  42234-3 0  9997", "line2": "2 31663  98.8373 241.7371 0189873 274.6782  83.2764 14.76286387991063"}}, "geometry": {"type": "Point", "coordinates": [-120.52992039727489, 22.420321971443006]}}, {"type": "Feature", "properties": {"norad_id": 31664, "name": "FENGYUN 1C DEB", "group": "fengyun-1c-debris", "lat": 9.229658555021453, "lon": 149.49337368330836, "alt_km": 774.155402615218, "timestamp": "2025-12-02T06:27:53.296952+00:00", "meta": {"OBJECT_NAME": "FENGYUN 1C DEB", "OBJECT_ID": "1999-025CBW", "EPOCH": "2025-11-26T10:01:42.482784", "MEAN_MOTION": 14.10267037, "ECCENTRICITY": 0.012417, "INCLINATION": 98.751, "RA_OF_ASC_NODE": 322.3642, "ARG_OF_PERICENTER": 204.4231, "MEAN_ANOMALY": 155.1025, "EPHEMERIS_TYPE": 0, "CLASSIFICATION_TYPE": "U", "NORAD_CAT_ID": 31664, "ELEMENT_SET_NO": 999, "REV_AT_EPOCH": 95771, "BSTAR": 0.00043106845, "MEAN_MOTION_DOT": 7.78e-06, "MEAN_MOTION_DDOT": 0}, "tle": {"line1": "1 31664U 99025CBW 25330.41785281  .00000778  00000+0  43107-3 0  9993", "line2": "2 31664  98.7510 322.3642 0124170 204.4231 155.1025 14.10267037957714"}}, "geometry": {"type": "Point", "coordinates": [149.49337368330836, 9.229658555021453]}}, {"type": "Feature", "properties": {"norad_id": 31665, "name": "FENGYUN 1C DEB", "group": "fengyun-1c-debris", "lat": 72.65873101422783, "lon": -8.171263277955159, "alt_km": 1046.7465465985842, "timestamp": "2025-12-02T06:27:53.296962+00:00", "meta": {"OBJECT_NAME": "FENGYUN 1C DEB", "OBJECT_ID": "1999-025CBX", "EPOCH": "2025-11-29T13:55:45.257088", "MEAN_MOTION": 13.84758836, "ECCENTRICITY": 0.01900248, "INCLINATION": 98.4512, "RA_OF_ASC_NODE": 17.8375, "ARG_OF_PERICENTER": 222.9369, "MEAN_ANOMALY": 135.6823, "EPHEMERIS_TYPE": 0, "CLASSIFICATION_TYPE": "U", "NORAD_CAT_ID": 31665, "ELEMENT_SET_NO": 999, "REV_AT_EPOCH": 93009, "BSTAR": 0.0012069056, "MEAN_MOTION_DOT": 1.525e-05, "MEAN_MOTION_DDOT": 0}, "tle": {"line1": "1 31665U 99025CBX 25333.58038492  .00001525  00000+0  12069-2 0  9993", "line2": "2 31665  98.4512  17.8375 0190024 222.9369 135.6823 13.84758836930094"}}, "geometry": {"type": "Point", "coordinates": [-8.171263277955159, 72.65873101422783]}}, {"type": "Feature", "properties": {"norad_id": 31666, "name": "FENGYUN 1C DEB", "group": "fengyun-1c-debris", "lat": 34.05517460406217, "lon": 118.16589629819563, "alt_km": 634.7370001052004, "timestamp": "2025-12-02T06:27:53.296973+00:00", "meta": {"OBJECT_NAME": "FENGYUN 1C DEB", "OBJECT_ID": "1999-025CBY", "EPOCH": "2025-12-01T09:15:11.992608", "MEAN_MOTION": 14.82644549, "ECCENTRICITY": 0.00263225, "INCLINATION": 98.6562, "RA_OF_ASC_NODE": 123.1201, "ARG_OF_PERICENTER": 188.8412, "MEAN_ANOMALY": 171.2339, "EPHEMERIS_TYPE": 0, "CLASSIFICATION_TYPE": "U", "NORAD_CAT_ID": 31666, "ELEMENT_SET_NO": 999, "REV_AT_EPOCH": 97103, "BSTAR": 0.0054771362, "MEAN_MOTION_DOT": 0.0004461, "MEAN_MOTION_DDOT": 0}, "tle": {"line1": "1 31666U 99025CBY 25335.38555547  .00044610  00000+0  54771-2 0  9997", "line2": "2 31666  98.6562 123.1201 0026322 188.8412 171.2339 14.82644549971030"}}, "geometry": {"type": "Point", "coordinates": [118.16589629819563, 34.05517460406217]}}, {"type": "Feature", "properties": {"norad_id": 31667, "name": "FENGYUN 1C DEB", "group": "fengyun-1c-debris", "lat": -55.613280712602865, "lon": -5.59704824693844, "alt_km": 838.7770272270382, "timestamp": "2025-12-02T06:27:53.296984+00:00", "meta": {"OBJECT_NAME": "FENGYUN 1C DEB", "OBJECT_ID": "1999-025CBZ", "EPOCH": "2025-11-26T09:20:37.189248", "MEAN_MOTION": 14.23473152, "ECCENTRICITY": 0.00513712, "INCLINATION": 99.0861, "RA_OF_ASC_NODE": 181.8566, "ARG_OF_PERICENTER": 133.7405, "MEAN_ANOMALY": 226.8042, "EPHEMERIS_TYPE": 0, "CLASSIFICATION_TYPE": "U", "NORAD_CAT_ID": 31667, "ELEMENT_SET_NO": 999, "REV_AT_EPOCH": 55760, "BSTAR": 0.0002979617, "MEAN_MOTION_DOT": 6.4e-06, "MEAN_MOTION_DDOT": 0}, "tle": {"line1": "1 31667U 99025CBZ 25330.38931932  .00000640  00000+0  29796-3 0  9994", "line2": "2 31667  99.0861 181.8566 0051371 133.7405 226.8042 14.23473152557602"}}, "geometry": {"type": "Point", "coordinates": [-5.59704824693844, -55.613280712602865]}}, {"type": "Feature", "properties": {"norad_id": 31672, "name": "FENGYUN 1C DEB", "group": "fengyun-1c-debris", "lat": 2.6577645128153944, "lon": 162.77592546841493, "alt_km": 650.2937202172461, "timestamp": "2025-12-02T06:27:53.296998+00:00", "meta": {"OBJECT_NAME": "FENGYUN 1C DEB", "OBJECT_ID": "1999-025CCE", "EPOCH": "2025-12-01T18:51:55.989216", "MEAN_MOTION": 14.50697513, "ECCENTRICITY": 0.0108244, "INCLINATION": 98.9574, "RA_OF_ASC_NODE": 162.6813, "ARG_OF_PERICENTER": 14.6246, "MEAN_ANOMALY": 345.8036, "EPHEMERIS_TYPE": 0, "CLASSIFICATION_TYPE": "U", "NORAD_CAT_ID": 31672, "ELEMENT_SET_NO": 999, "REV_AT_EPOCH": 64712, "BSTAR": 0.001412, "MEAN_MOTION_DOT": 5.934e-05, "MEAN_MOTION_DDOT": 0}, "tle": {"line1": "1 31672U 99025CCE 25335.78606469  .00005934  00000+0  14120-2 0  9998", "line2": "2 31672  98.9574 162.6813 0108244  14.6246 345.8036 14.50697513647122"}}, "geometry": {"type": "Point", "coordinates": [162.77592546841493, 2.6577645128153944]}}, {"type": "Feature", "properties": {"norad_id": 31673, "name": "FENGYUN 1C DEB", "group": "fengyun-1c-debris", "lat": -16.638142314726554, "lon": 172.7312451286526, "alt_km": 797.9808361983869, "timestamp": "2025-12-02T06:27:53.297008+00:00", "meta": {"OBJECT_NAME": "FENGYUN 1C DEB", "OBJECT_ID": "1999-025CCF", "EPOCH": "2025-12-01T12:05:46.557312", "MEAN_MOTION": 14.31920513, "ECCENTRICITY": 0.01258857, "INCLINATION": 99.374, "RA_OF_ASC_NODE": 169.0754, "ARG_OF_PERICENTER": 81.1692, "MEAN_ANOMALY": 280.3719, "EPHEMERIS_TYPE": 0, "CLASSIFICATION_TYPE": "U", "NORAD_CAT_ID": 31673, "ELEMENT_SET_NO": 999, "REV_AT_EPOCH": 64730, "BSTAR": 0.00025702529, "MEAN_MOTION_DOT": 7e-06, "MEAN_MOTION_DDOT": 0}, "tle": {"line1": "1 31673U 99025CCF 25335.50401108  .00000700  00000+0  25703-3 0  9998", "line2": "2 31673  99.3740 169.0754 0125885  81.1692 280.3719 14.31920513647301"}}, "geometry": {"type": "Point", "coordinates": [172.7312451286526, -16.638142314726554]}}, {"type": "Feature", "properties": {"norad_id": 31674, "name": "FENGYUN 1C DEB", "group": "fengyun-1c-debris", "lat": 81.04277712659562, "lon": -73.80600705939369, "alt_km": 724.3907402082523, "timestamp": "2025-12-02T06:27:53.297018+00:00", "meta": {"OBJECT_NAME": "FENGYUN 1C DEB", "OBJECT_ID": "1999-025CCG", "EPOCH": "2025-11-28T07:44:59.944992", "MEAN_MOTION": 14.51401416, "ECCENTRICITY": 0.00238859, "INCLINATION": 98.9271, "RA_OF_ASC_NODE": 7.7446, "ARG_OF_PERICENTER": 330.337, "MEAN_ANOMALY": 29.6468, "EPHEMERIS_TYPE": 0, "CLASSIFICATION_TYPE": "U", "NORAD_CAT_ID": 31674, "ELEMENT_SET_NO": 999, "REV_AT_EPOCH": 64405, "BSTAR": 0.0028928695, "MEAN_MOTION_DOT": 0.00011549, "MEAN_MOTION_DDOT": 0}, "tle": {"line1": "1 31674U 99025CCG 25332.32291603  .00011549  00000+0  28929-2 0  9998", "line2": "2 31674  98.9271   7.7446 0023885 330.3370  29.6468 14.51401416644053"}}, "geometry": {"type": "Point", "coordinates": [-73.80600705939369, 81.04277712659562]}}]}